start=new Date('2021-09-27T00:00:00.000Z').valueOf();
sats=[{"MEAN_ANOMALY":"253.1551","COUNTRY_CODE":"US","RCS_SIZE":"LARGE","CENTER_NAME":"EARTH","OBJECT_ID":"2020-088AF","BSTAR":"0.00004501500000","INCLINATION":"53.0567","EPOCH":"2021-09-26T15:41:46.897728","NORAD_CAT_ID":"47151","TLE_LINE2":"2 47151  53.0567  36.6832 0001337 106.9585 253.1551 15.06404792 46901","EPHEMERIS_TYPE":"0","CLASSIFICATION_TYPE":"U","PERIOD":"95.592","ELEMENT_SET_NO":"999","MEAN_MOTION_DOT":"0.00000389","TLE_LINE1":"1 47151U 20088AF  21269.65401502  .00000389  00000-0  45015-4 0  9998","FILE":"3129566","SITE":"AFETR","APOAPSIS":"548.125","RA_OF_ASC_NODE":"36.6832","REV_AT_EPOCH":"4690","GP_ID":"185582161","PERIAPSIS":"546.273","DECAY_DATE":null,"OBJECT_TYPE":"PAYLOAD","SEMIMAJOR_AXIS":"6925.334","TIME_SYSTEM":"UTC","OBJECT_NAME":"STARLINK-1864","ECCENTRICITY":"0.00013370","ARG_OF_PERICENTER":"106.9585","REF_FRAME":"TEME","LAUNCH_DATE":"2020-11-25","MEAN_MOTION":"15.06404792","MEAN_ELEMENT_THEORY":"SGP4","MEAN_MOTION_DDOT":"0.0000000000000"},{"ARG_OF_PERICENTER":"107.2434","MEAN_MOTION_DDOT":"0.0000000000000","MEAN_MOTION":"15.06403517","MEAN_ELEMENT_THEORY":"SGP4","LAUNCH_DATE":"2020-11-25","REF_FRAME":"TEME","TLE_LINE1":"1 47152U 20088AG  21269.63926873  .00000653  00000-0  62709-4 0  9993","ELEMENT_SET_NO":"999","MEAN_MOTION_DOT":"0.00000653","TLE_LINE2":"2 47152  53.0562  36.7624 0001511 107.2434 252.8720 15.06403517 46906","EPHEMERIS_TYPE":"0","CLASSIFICATION_TYPE":"U","PERIOD":"95.592","EPOCH":"2021-09-26T15:20:32.818272","NORAD_CAT_ID":"47152","INCLINATION":"53.0562","OBJECT_ID":"2020-088AG","BSTAR":"0.00006270900000","MEAN_ANOMALY":"252.8720","COUNTRY_CODE":"US","RCS_SIZE":"LARGE","CENTER_NAME":"EARTH","ECCENTRICITY":"0.00015110","OBJECT_NAME":"STARLINK-1866","TIME_SYSTEM":"UTC","DECAY_DATE":null,"OBJECT_TYPE":"PAYLOAD","SEMIMAJOR_AXIS":"6925.338","PERIAPSIS":"546.156","REV_AT_EPOCH":"4690","GP_ID":"185582911","APOAPSIS":"548.249","RA_OF_ASC_NODE":"36.7624","FILE":"3129566","SITE":"AFETR"},{"SEMIMAJOR_AXIS":"6925.382","OBJECT_TYPE":"PAYLOAD","DECAY_DATE":null,"PERIAPSIS":"546.062","ECCENTRICITY":"0.00017110","OBJECT_NAME":"STARLINK-1867","TIME_SYSTEM":"UTC","RA_OF_ASC_NODE":"41.8774","APOAPSIS":"548.431","FILE":"3129566","SITE":"AFETR","GP_ID":"185581160","REV_AT_EPOCH":"4683","PERIOD":"95.593","TLE_LINE2":"2 47153  53.0588  41.8774 0001711  99.5839 260.5343 15.06389249 46836","CLASSIFICATION_TYPE":"U","EPHEMERIS_TYPE":"0","NORAD_CAT_ID":"47153","EPOCH":"2021-09-26T14:44:02.518656","TLE_LINE1":"1 47153U 20088AH  21269.61391804 -.00000195  00000-0  57994-5 0  9995","MEAN_MOTION_DOT":"-0.00000195","ELEMENT_SET_NO":"999","OBJECT_ID":"2020-088AH","BSTAR":"0.00000579940000","CENTER_NAME":"EARTH","RCS_SIZE":"LARGE","MEAN_ANOMALY":"260.5343","COUNTRY_CODE":"US","INCLINATION":"53.0588","MEAN_ELEMENT_THEORY":"SGP4","MEAN_MOTION":"15.06389249","MEAN_MOTION_DDOT":"0.0000000000000","LAUNCH_DATE":"2020-11-25","REF_FRAME":"TEME","ARG_OF_PERICENTER":"99.5839"},{"GP_ID":"185581410","REV_AT_EPOCH":"4704","RA_OF_ASC_NODE":"26.8958","APOAPSIS":"548.096","FILE":"3129566","SITE":"AFETR","ECCENTRICITY":"0.00012800","OBJECT_NAME":"STARLINK-1868","TIME_SYSTEM":"UTC","SEMIMAJOR_AXIS":"6925.345","OBJECT_TYPE":"PAYLOAD","DECAY_DATE":null,"PERIAPSIS":"546.323","INCLINATION":"53.0569","OBJECT_ID":"2020-088AJ","BSTAR":"0.00004592500000","RCS_SIZE":"LARGE","CENTER_NAME":"EARTH","COUNTRY_CODE":"US","MEAN_ANOMALY":"258.5552","TLE_LINE1":"1 47154U 20088AJ  21269.61070452  .00000403  00000-0  45925-4 0  9990","MEAN_MOTION_DOT":"0.00000403","ELEMENT_SET_NO":"999","PERIOD":"95.592","CLASSIFICATION_TYPE":"U","TLE_LINE2":"2 47154  53.0569  26.8958 0001280 101.5581 258.5552 15.06401195 47040","EPHEMERIS_TYPE":"0","NORAD_CAT_ID":"47154","EPOCH":"2021-09-26T14:39:24.870528","LAUNCH_DATE":"2020-11-25","REF_FRAME":"TEME","MEAN_MOTION_DDOT":"0.0000000000000","MEAN_MOTION":"15.06401195","MEAN_ELEMENT_THEORY":"SGP4","ARG_OF_PERICENTER":"101.5581"},{"ARG_OF_PERICENTER":"97.7930","MEAN_MOTION_DDOT":"0.0000000000000","MEAN_MOTION":"15.06395225","MEAN_ELEMENT_THEORY":"SGP4","REF_FRAME":"TEME","LAUNCH_DATE":"2020-11-25","MEAN_MOTION_DOT":"-0.00000725","ELEMENT_SET_NO":"999","TLE_LINE1":"1 47155U 20088AK  21269.64574213 -.00000725  00000-0 -29792-4 0  9991","NORAD_CAT_ID":"47155","EPOCH":"2021-09-26T15:29:52.120032","PERIOD":"95.592","TLE_LINE2":"2 47155  53.0547  46.7244 0001631  97.7930 262.3244 15.06395225 46765","EPHEMERIS_TYPE":"0","CLASSIFICATION_TYPE":"U","INCLINATION":"53.0547","CENTER_NAME":"EARTH","RCS_SIZE":"LARGE","COUNTRY_CODE":"US","MEAN_ANOMALY":"262.3244","OBJECT_ID":"2020-088AK","BSTAR":"-0.00002979200000","TIME_SYSTEM":"UTC","OBJECT_NAME":"STARLINK-1869","ECCENTRICITY":"0.00016310","PERIAPSIS":"546.099","OBJECT_TYPE":"PAYLOAD","SEMIMAJOR_AXIS":"6925.363","DECAY_DATE":null,"GP_ID":"185582661","REV_AT_EPOCH":"4676","FILE":"3129566","SITE":"AFETR","RA_OF_ASC_NODE":"46.7244","APOAPSIS":"548.358"},{"ARG_OF_PERICENTER":"37.8973","REF_FRAME":"TEME","LAUNCH_DATE":"2020-11-25","MEAN_MOTION":"15.42159977","MEAN_ELEMENT_THEORY":"SGP4","MEAN_MOTION_DDOT":"0.0000000000000","COUNTRY_CODE":"US","MEAN_ANOMALY":"322.2162","RCS_SIZE":"LARGE","CENTER_NAME":"EARTH","OBJECT_ID":"2020-088AL","BSTAR":"0.00001093400000","INCLINATION":"53.0553","EPOCH":"2021-09-26T11:58:24.593664","NORAD_CAT_ID":"47156","TLE_LINE2":"2 47156  53.0553 341.8006 0001852  37.8973 322.2162 15.42159977 47921","CLASSIFICATION_TYPE":"U","EPHEMERIS_TYPE":"0","PERIOD":"93.376","ELEMENT_SET_NO":"999","MEAN_MOTION_DOT":"0.00000064","TLE_LINE1":"1 47156U 20088AL  21269.49889576  .00000064  00000-0  10934-4 0  9998","FILE":"3129429","SITE":"AFETR","APOAPSIS":"441.000","RA_OF_ASC_NODE":"341.8006","REV_AT_EPOCH":"4792","GP_ID":"185557720","PERIAPSIS":"438.475","DECAY_DATE":null,"OBJECT_TYPE":"PAYLOAD","SEMIMAJOR_AXIS":"6817.873","OBJECT_NAME":"STARLINK-1870","TIME_SYSTEM":"UTC","ECCENTRICITY":"0.00018520"},{"PERIAPSIS":"546.242","SEMIMAJOR_AXIS":"6925.350","OBJECT_TYPE":"PAYLOAD","DECAY_DATE":null,"TIME_SYSTEM":"UTC","OBJECT_NAME":"STARLINK-1871","ECCENTRICITY":"0.00014050","FILE":"3129566","SITE":"AFETR","RA_OF_ASC_NODE":"36.8622","APOAPSIS":"548.188","GP_ID":"185581660","REV_AT_EPOCH":"4690","NORAD_CAT_ID":"47157","EPOCH":"2021-09-26T14:48:43.936416","PERIOD":"95.592","TLE_LINE2":"2 47157  53.0564  36.8622 0001405 104.9827 255.1318 15.06399513 46903","CLASSIFICATION_TYPE":"U","EPHEMERIS_TYPE":"0","MEAN_MOTION_DOT":"0.00003867","ELEMENT_SET_NO":"999","TLE_LINE1":"1 47157U 20088AM  21269.61717519  .00003867  00000-0  27838-3 0  9994","RCS_SIZE":"LARGE","CENTER_NAME":"EARTH","MEAN_ANOMALY":"255.1318","COUNTRY_CODE":"US","OBJECT_ID":"2020-088AM","BSTAR":"0.00027838000000","INCLINATION":"53.0564","MEAN_ELEMENT_THEORY":"SGP4","MEAN_MOTION":"15.06399513","MEAN_MOTION_DDOT":"0.0000000000000","REF_FRAME":"TEME","LAUNCH_DATE":"2020-11-25","ARG_OF_PERICENTER":"104.9827"},{"ARG_OF_PERICENTER":"108.3776","MEAN_MOTION_DDOT":"0.0000000000000","MEAN_ELEMENT_THEORY":"SGP4","MEAN_MOTION":"15.06398415","LAUNCH_DATE":"2020-11-25","REF_FRAME":"TEME","TLE_LINE1":"1 47158U 20088AN  21269.64020040  .00001285  00000-0  10518-3 0  9993","ELEMENT_SET_NO":"999","MEAN_MOTION_DOT":"0.00001285","TLE_LINE2":"2 47158  53.0563  26.7346 0001345 108.3776 251.7359 15.06398415 47041","CLASSIFICATION_TYPE":"U","EPHEMERIS_TYPE":"0","PERIOD":"95.592","EPOCH":"2021-09-26T15:21:53.314560","NORAD_CAT_ID":"47158","INCLINATION":"53.0563","BSTAR":"0.00010518000000","OBJECT_ID":"2020-088AN","COUNTRY_CODE":"US","MEAN_ANOMALY":"251.7359","CENTER_NAME":"EARTH","RCS_SIZE":"LARGE","ECCENTRICITY":"0.00013450","TIME_SYSTEM":"UTC","OBJECT_NAME":"STARLINK-1873","DECAY_DATE":null,"OBJECT_TYPE":"PAYLOAD","SEMIMAJOR_AXIS":"6925.353","PERIAPSIS":"546.287","REV_AT_EPOCH":"4704","GP_ID":"185581910","APOAPSIS":"548.150","RA_OF_ASC_NODE":"26.7346","SITE":"AFETR","FILE":"3129566"},{"CENTER_NAME":"EARTH","RCS_SIZE":"LARGE","MEAN_ANOMALY":"245.3138","COUNTRY_CODE":"US","BSTAR":"0.00007370500000","OBJECT_ID":"2020-088AP","INCLINATION":"53.0565","NORAD_CAT_ID":"47159","EPOCH":"2021-09-26T15:15:14.411808","PERIOD":"95.591","CLASSIFICATION_TYPE":"U","TLE_LINE2":"2 47159  53.0565  36.7835 0001191 114.7975 245.3138 15.06410979 46907","EPHEMERIS_TYPE":"0","MEAN_MOTION_DOT":"0.00000817","ELEMENT_SET_NO":"999","TLE_LINE1":"1 47159U 20088AP  21269.63558347  .00000817  00000-0  73705-4 0  9997","FILE":"3129566","SITE":"AFETR","RA_OF_ASC_NODE":"36.7835","APOAPSIS":"548.005","GP_ID":"185582162","REV_AT_EPOCH":"4690","PERIAPSIS":"546.355","SEMIMAJOR_AXIS":"6925.315","OBJECT_TYPE":"PAYLOAD","DECAY_DATE":null,"OBJECT_NAME":"STARLINK-1874","TIME_SYSTEM":"UTC","ECCENTRICITY":"0.00011910","ARG_OF_PERICENTER":"114.7975","REF_FRAME":"TEME","LAUNCH_DATE":"2020-11-25","MEAN_ELEMENT_THEORY":"SGP4","MEAN_MOTION":"15.06410979","MEAN_MOTION_DDOT":"0.0000000000000"},{"COUNTRY_CODE":"US","MEAN_ANOMALY":"79.5782","CENTER_NAME":"EARTH","RCS_SIZE":"LARGE","OBJECT_ID":"2020-088AQ","BSTAR":"0.00529610000000","INCLINATION":"53.0549","EPOCH":"2021-09-26T18:41:27.468096","NORAD_CAT_ID":"47160","CLASSIFICATION_TYPE":"U","TLE_LINE2":"2 47160  53.0549  13.0804 0003649 280.4813  79.5782 15.47373715 47259","EPHEMERIS_TYPE":"0","PERIOD":"93.061","ELEMENT_SET_NO":"999","MEAN_MOTION_DOT":"0.00285221","TLE_LINE1":"1 47160U 20088AQ  21269.77879014  .00285221  00000-0  52961-2 0  9994","SITE":"AFETR","FILE":"3129566","APOAPSIS":"426.897","RA_OF_ASC_NODE":"13.0804","REV_AT_EPOCH":"4725","GP_ID":"185582912","PERIAPSIS":"421.932","DECAY_DATE":null,"OBJECT_TYPE":"PAYLOAD","SEMIMAJOR_AXIS":"6802.549","OBJECT_NAME":"STARLINK-1875","TIME_SYSTEM":"UTC","ECCENTRICITY":"0.00036490","ARG_OF_PERICENTER":"280.4813","REF_FRAME":"TEME","LAUNCH_DATE":"2020-11-25","MEAN_ELEMENT_THEORY":"SGP4","MEAN_MOTION":"15.47373715","MEAN_MOTION_DDOT":"0.0000000000000"}];
